BUGSAT-1 (TITA)         
1 40014U 14033E   26070.29011405  .00005871  00000+0  31931-3 0  9997
2 40014  98.0426 157.2052 0029464 153.0157 207.2613 15.14524902641015
SAUDISAT 4              
1 40016U 14033G   26070.32139185  .00000962  00000+0  13368-3 0  9999
2 40016  97.7415 219.9304 0045614  33.4779 326.9301 14.79393482631607
APRIZESAT 9             
1 40018U 14033J   26070.32961798  .00001252  00000+0  19112-3 0  9990
2 40018  97.8883 206.0172 0066941 153.9820 206.4780 14.74078422629148
BRITE-CA1 (TORONTO)     
1 40020U 14033L   26070.32790695  .00001689  00000+0  26191-3 0  9998
2 40020  97.9569 201.1618 0077954 229.5970 129.8418 14.72469425627819
DUCHIFAT-1              
1 40021U 14033M   26070.12019676  .00062025  00000+0  10999-2 0  9999
2 40021  98.0635 116.7158 0006015  81.6055 278.5876 15.50020653640499
NANOSATC-BR1            
1 40024U 14033Q   26070.29226181  .00020452  00000+0  74587-3 0  9993
2 40024  98.0847  94.2008 0004754 145.4754 214.6793 15.28193745639017
QB50P1                  
1 40025U 14033R   26069.96365258  .00012454  00000+0  64105-3 0  9993
2 40025  98.1010  74.3327 0008482 190.5774 169.5280 15.16551142638136
DTUSAT-2                
1 40030U 14033W   26070.24603938  .00010391  00000+0  58265-3 0  9990
2 40030  98.0852  61.8756 0007239 196.2766 163.8232 15.13569301637861
QB50P2                  
1 40032U 14033Y   26069.91935434  .00011247  00000+0  62780-3 0  9991
2 40032  98.0738  60.8050 0008678 139.4770 220.7107 15.13698340637796
PERSEUS-M1              
1 40039U 14033AF  26070.28010615  .00002019  00000+0  18883-3 0  9997
2 40039  97.9552  12.8857 0010138 262.5327  97.4741 14.95262006636008
POLYITAN-1              
1 40042U 14033AJ  26069.98268889  .00024681  00000+0  85973-3 0  9997
2 40042  98.1054  87.1838 0009432 124.2502 235.9631 15.29623329638567
TIGRISAT                
1 40043U 14033AK  26069.93783078  .00002472  00000+0  29159-3 0  9993
2 40043  97.7677 222.3049 0050264  38.2979 322.1788 14.84736182631042
AISAT                   
1 40054U 14034B   26070.28070146  .00014359  00000+0  96794-3 0  9997
2 40054  98.2444 335.6869 0009043 183.0518 177.0653 15.06752517632456
CANX-4                  
1 40055U 14034C   26070.19730321  .00001321  00000+0  17752-3 0  9998
2 40055  98.3274 301.8429 0012246 331.4469  28.6070 14.81066033630027
CANX-5                  
1 40056U 14034D   26070.06174169  .00001309  00000+0  17594-3 0  9997
2 40056  98.3277 301.7398 0012225 332.1886  27.8670 14.81082254620819
VELOX-I                 
1 40057U 14034E   26070.29642387  .00007132  00000+0  62667-3 0  9996
2 40057  98.2617 329.7829 0006157 233.1648 126.9007 14.96888159631955
GONETS-M 10             
1 40063U 14036C   26070.27095134 -.00000044  00000+0 -39038-3 0  9998
2 40063  82.5162   8.4876 0022235 358.7566   1.3455 12.42942352530084
METEOR-M 2              
1 40069U 14037A   26070.30237775  .00000255  00000+0  13591-3 0  9996
2 40069  98.5034  49.5559 0005269 333.1009  26.9895 14.21429850605419
DX1                     
1 40071U 14037C   26070.30372148  .00005346  00000+0  56550-3 0  9991
2 40071  98.3765  26.1564 0005838 223.5898 136.4857 14.89640368631538
UKUBE-1                 
1 40074U 14037F   26070.20583945  .00011886  00000+0  69928-3 0  9991
2 40074  98.4235  63.3220 0003031 110.0023 250.1531 15.11830183633749
GAOFEN-2                
1 40118U 14049A   26070.26707515  .00001072  00000+0  14610-3 0  9994
2 40118  98.0216 134.5285 0007204 179.9216 180.1999 14.80775070624747
BRITE-PL2 (HEWELIUSZ)   
1 40119U 14049B   26070.28031524  .00002168  00000+0  20749-3 0  9994
2 40119  97.8979 181.6198 0015329  76.1093 284.1831 14.94194106626826
CBERS 4                 
1 40336U 14079A   26070.31646023  .00000123  00000+0  57518-4 0  9992
2 40336  98.3475 130.2764 0000725  50.5281 309.5969 14.35464235589912
SMAP                    
1 40376U 15003A   26070.30221384  .00000647  00000+0  13430-3 0  9997
2 40376  98.1313  78.7683 0001467 111.7164 248.4195 14.63341433593300
GONETS-M 11             
1 40552U 15020A   26070.28397506 -.00000045  00000+0 -39827-3 0  9991
2 40552  82.4808  92.0015 0015435 211.9679 148.0465 12.42872315496572
GONETS-M 12             
1 40553U 15020B   26070.25864009 -.00000049  00000+0 -42430-3 0  9994
2 40553  82.4842  93.1159 0014762 195.8061 164.2560 12.42888057496564
GONETS-M 13             
1 40554U 15020C   26070.23047297 -.00000075  00000+0 -61644-3 0  9992
2 40554  82.4803  91.7765 0013679 180.0668 180.0412 12.42866699496531
DMC3-FM1                
1 40715U 15032A   26070.27748485  .00000754  00000+0  93088-4 0  9995
2 40715  97.6609 299.2142 0006396  29.3283 330.8291 14.85617463575374
DMC3-FM2                
1 40716U 15032B   26070.23246167  .00000317  00000+0  42591-4 0  9990
2 40716  97.6662 300.6771 0006972  32.6974 327.4672 14.85618636575360
DMC3-FM3                
1 40717U 15032C   26070.25553990  .00000818  00000+0  10046-3 0  9993
2 40717  97.6714 302.3888 0006142  33.9851 326.1757 14.85618083575371
CARBONITE 1 (CBNT-1)    
1 40718U 15032D   26070.30807358  .00001814  00000+0  22793-3 0  9999
2 40718  97.6471 252.5067 0013307 254.4273 105.5473 14.83225740574832
DEORBITSAIL             
1 40719U 15032E   26070.16784901  .00010402  00000+0  78976-3 0  9999
2 40719  97.5982 288.8889 0012277 205.7496 154.3119 15.02319985576528
2015-049G               
1 40905U 15049G   26070.27499760  .00039585  00000+0  50300-3 0  9996
2 40905  97.4720 108.9318 0005317 199.0252 161.0807 15.59285665581158
LILACSAT-2              
1 40908U 15049K   26070.32476009  .00019241  00000+0  36818-3 0  9991
2 40908  97.4810 103.6060 0005772 237.5797 122.4895 15.48094628580594
COSMOS 2507 (RODNIK-S *)
1 40920U 15050A   26070.27030931  .00000016  00000+0  45085-4 0  9998
2 40920  82.4934 140.6386 0009764 195.2016 164.8772 12.42923376474699
COSMOS 2508 (RODNIK-S *)
1 40921U 15050B   26070.30478925 -.00000009  00000+0 -13895-3 0  9999
2 40921  82.4884 139.1600 0013309 232.4977 127.4893 12.42910268474680
COSMOS 2509 (RODNIK-S *)
1 40922U 15050C   26070.24223558  .00000023  00000+0  95134-4 0  9994
2 40922  82.4891 139.2913 0013382 252.6219 107.3397 12.42930634474710
LQSAT                   
1 40958U 15057A   26070.29336722  .00001402  00000+0  20708-3 0  9999
2 40958  97.6670  68.5411 0015747 227.3229 132.6656 14.76642441560862
LINGQIAO VIDEO A        
1 40959U 15057B   26070.28644037  .00001312  00000+0  19166-3 0  9996
2 40959  97.6617  69.9412 0015530 224.5698 135.4265 14.77244936560954
LINGQIAO VIDEO B        
1 40960U 15057C   26070.26983558  .00000957  00000+0  14126-3 0  9995
2 40960  97.6588  71.1131 0015688 224.8939 135.1004 14.77337255560990
JILIN-1                 
1 40961U 15057D   26070.25901582  .00000908  00000+0  13234-3 0  9997
2 40961  97.6519  74.5004 0015994 218.2867 141.7210 14.77996100561148
FOX-1A (AO-85)          
1 40967U 15058D   26069.80025514  .00004489  00000+0  40787-3 0  9996
2 40967  64.7749 224.5937 0128853  95.4595 266.1231 14.90367024 98904
SINOD-D 1               
1 40968U 15058E   26069.64318569  .00006084  00000+0  49635-3 0  9998
2 40968  64.7758 207.3131 0117241  92.8075 268.6465 14.95067631101922
ELEKTRO-L 2             
1 41105U 15074A   26070.28525654 -.00000115  00000+0  00000+0 0  9996
2 41105   6.4475  71.7247 0003013 247.2586 298.1271  1.00271361 37526
DAMPE                   
1 41173U 15078A   26070.30413395  .00002266  00000+0  79281-4 0  9996
2 41173  97.4589  75.3007 0013798  66.5258 293.7432 15.30507231569571
ORBCOMM FM114           
1 41179U 15081A   26070.10680422  .00000640  00000+0  17206-3 0  9993
2 41179  47.0040 105.6741 0001306 126.8020 233.2986 14.58732427543437
ORBCOMM FM110           
1 41182U 15081D   26070.09600853  .00000880  00000+0  22303-3 0  9995
2 41182  47.0010 105.1967 0003315 323.9729  36.0933 14.58738613543301
ORBCOMM FM112           
1 41184U 15081F   26070.20206228  .00000969  00000+0  24177-3 0  9997
2 41184  47.0007  13.5102 0000993 111.2623 248.8369 14.58734992544642
ORBCOMM FM113           
1 41185U 15081G   26070.24776692  .00000879  00000+0  22275-3 0  9996
2 41185  47.0024  13.6623 0000697 131.6733 228.4213 14.58735042544638
ORBCOMM FM108           
1 41187U 15081J   26070.27885273  .00000808  00000+0  20768-3 0  9994
2 41187  47.0046 285.0574 0002162 107.3250 252.7872 14.58746694545780
ORBCOMM FM117           
1 41188U 15081K   26070.03893793  .00000802  00000+0  20638-3 0  9995
2 41188  47.0010 284.8582 0002608 115.2266 244.8890 14.58737810545791
ORBCOMM FM116           
1 41189U 15081L   26070.22523866  .00001076  00000+0  26446-3 0  9995
2 41189  47.0039  13.7599 0002370 319.8854  40.1856 14.58732064544638
CHUBUSAT-2              
1 41338U 16012B   26070.12744428  .00008860  00000+0  39789-3 0  9996
2 41338  30.9967 244.3904 0008765 154.7905 205.3165 15.19776454553484
CHUBUSAT-3              
1 41339U 16012C   26070.17460964  .00005274  00000+0  25012-3 0  9992
2 41339  31.0039 251.4164 0009096 146.4905 213.6312 15.17646747553294
HORYU-4                 
1 41340U 16012D   26070.06303314  .00098991  00000+0  10291-2 0  9997
2 41340  30.9922  58.4063 0003268 166.8557 193.2181 15.63174562555327
ZIYUAN 3-02 (ZY 3-02)   
1 41556U 16033A   26070.31848066  .00006933  00000+0  30996-3 0  9995
2 41556  97.3894 147.9445 0010970 292.3955  67.6118 15.21581394543100
CARTOSAT-2C             
1 41599U 16040A   26070.31814432  .00004908  00000+0  23586-3 0  9997
2 41599  97.4600 131.5824 0010399 116.2932 243.9372 15.19241940538851
LAPAN-A3                
1 41603U 16040E   26070.26568770  .00004694  00000+0  15219-3 0  9994
2 41603  97.1488  69.6866 0010840  17.6133 342.5483 15.32402669539811
GAOFEN-3                
1 41727U 16049A   26070.33056144  .00000357  00000+0  12159-3 0  9997
2 41727  98.4058  79.5798 0001688  88.3085 271.8298 14.42217638504540
